[{"OBJECT_NAME":"FLOCK 4BE-22","OBJECT_ID":"2024-149AC","EPOCH":"2026-03-02T17:32:57.268896","MEAN_MOTION":15.37386667,"ECCENTRICITY":0.00026422,"INCLINATION":97.3794,"RA_OF_ASC_NODE":144.547,"ARG_OF_PERICENTER":293.4557,"MEAN_ANOMALY":66.641,"EPHEMERIS_TYPE":0,"CLASSIFICATION_TYPE":"U","NORAD_CAT_ID":60494,"ELEMENT_SET_NO":999,"REV_AT_EPOCH":8592,"BSTAR":0.00060877964,"MEAN_MOTION_DOT":0.00022268,"MEAN_MOTION_DDOT":0},{"OBJECT_NAME":"FLOCK 4BE-34","OBJECT_ID":"2024-149AD","EPOCH":"2026-03-02T22:47:37.759776","MEAN_MOTION":15.37694293,"ECCENTRICITY":0.00022934,"INCLINATION":97.3838,"RA_OF_ASC_NODE":145.509,"ARG_OF_PERICENTER":297.5186,"MEAN_ANOMALY":62.5825,"EPHEMERIS_TYPE":0,"CLASSIFICATION_TYPE":"U","NORAD_CAT_ID":60495,"ELEMENT_SET_NO":999,"REV_AT_EPOCH":8598,"BSTAR":0.00053188621,"MEAN_MOTION_DOT":0.00019632,"MEAN_MOTION_DDOT":0},{"OBJECT_NAME":"FLOCK 4BE-32","OBJECT_ID":"2024-149AF","EPOCH":"2026-03-02T17:01:52.909824","MEAN_MOTION":15.38117642,"ECCENTRICITY":0.0002579,"INCLINATION":97.378,"RA_OF_ASC_NODE":144.7741,"ARG_OF_PERICENTER":295.9538,"MEAN_ANOMALY":64.1441,"EPHEMERIS_TYPE":0,"CLASSIFICATION_TYPE":"U","NORAD_CAT_ID":60497,"ELEMENT_SET_NO":999,"REV_AT_EPOCH":8594,"BSTAR":0.00061871137,"MEAN_MOTION_DOT":0.00023177,"MEAN_MOTION_DDOT":0},{"OBJECT_NAME":"FLOCK 4BE-30","OBJECT_ID":"2024-149AH","EPOCH":"2026-03-02T18:50:29.222016","MEAN_MOTION":15.37954612,"ECCENTRICITY":0.00019539,"INCLINATION":97.3861,"RA_OF_ASC_NODE":145.4066,"ARG_OF_PERICENTER":296.027,"MEAN_ANOMALY":64.0774,"EPHEMERIS_TYPE":0,"CLASSIFICATION_TYPE":"U","NORAD_CAT_ID":60499,"ELEMENT_SET_NO":999,"REV_AT_EPOCH":8533,"BSTAR":0.00058044563,"MEAN_MOTION_DOT":0.00021619,"MEAN_MOTION_DDOT":0},{"OBJECT_NAME":"FLOCK 4BE-11","OBJECT_ID":"2024-149AK","EPOCH":"2026-03-02T18:16:59.441376","MEAN_MOTION":15.38931022,"ECCENTRICITY":0.00029581,"INCLINATION":97.3765,"RA_OF_ASC_NODE":144.9507,"ARG_OF_PERICENTER":294.6132,"MEAN_ANOMALY":65.4805,"EPHEMERIS_TYPE":0,"CLASSIFICATION_TYPE":"U","NORAD_CAT_ID":60501,"ELEMENT_SET_NO":999,"REV_AT_EPOCH":8596,"BSTAR":0.00063032144,"MEAN_MOTION_DOT":0.00024251,"MEAN_MOTION_DDOT":0},{"OBJECT_NAME":"FLOCK 4BE-24","OBJECT_ID":"2024-149AP","EPOCH":"2026-03-02T17:49:37.831008","MEAN_MOTION":15.38802622,"ECCENTRICITY":0.00028896,"INCLINATION":97.3778,"RA_OF_ASC_NODE":145.1775,"ARG_OF_PERICENTER":306.4847,"MEAN_ANOMALY":53.6132,"EPHEMERIS_TYPE":0,"CLASSIFICATION_TYPE":"U","NORAD_CAT_ID":60505,"ELEMENT_SET_NO":999,"REV_AT_EPOCH":8597,"BSTAR":0.00058231189,"MEAN_MOTION_DOT":0.00022298,"MEAN_MOTION_DDOT":0},{"OBJECT_NAME":"TANAGER-1","OBJECT_ID":"2024-149AR","EPOCH":"2026-03-02T19:42:55.374336","MEAN_MOTION":15.43521075,"ECCENTRICITY":0.00066929,"INCLINATION":97.3797,"RA_OF_ASC_NODE":155.105,"ARG_OF_PERICENTER":222.7695,"MEAN_ANOMALY":137.3033,"EPHEMERIS_TYPE":0,"CLASSIFICATION_TYPE":"U","NORAD_CAT_ID":60507,"ELEMENT_SET_NO":999,"REV_AT_EPOCH":8662,"BSTAR":0.00011350145,"MEAN_MOTION_DOT":5.003e-5,"MEAN_MOTION_DDOT":0},{"OBJECT_NAME":"FLOCK 4BE-29","OBJECT_ID":"2024-149AT","EPOCH":"2026-03-02T18:36:17.246304","MEAN_MOTION":15.40058446,"ECCENTRICITY":0.00020094,"INCLINATION":97.386,"RA_OF_ASC_NODE":146.3361,"ARG_OF_PERICENTER":327.5677,"MEAN_ANOMALY":32.5446,"EPHEMERIS_TYPE":0,"CLASSIFICATION_TYPE":"U","NORAD_CAT_ID":60509,"ELEMENT_SET_NO":999,"REV_AT_EPOCH":8601,"BSTAR":0.0006357864,"MEAN_MOTION_DOT":0.00025384,"MEAN_MOTION_DDOT":0},{"OBJECT_NAME":"FLOCK 4BE-2","OBJECT_ID":"2024-149AV","EPOCH":"2026-03-02T21:13:21.698688","MEAN_MOTION":15.42467363,"ECCENTRICITY":0.00026265,"INCLINATION":97.3866,"RA_OF_ASC_NODE":146.9985,"ARG_OF_PERICENTER":303.4051,"MEAN_ANOMALY":56.6945,"EPHEMERIS_TYPE":0,"CLASSIFICATION_TYPE":"U","NORAD_CAT_ID":60511,"ELEMENT_SET_NO":999,"REV_AT_EPOCH":8606,"BSTAR":0.0010948965,"MEAN_MOTION_DOT":0.00047547,"MEAN_MOTION_DDOT":0},{"OBJECT_NAME":"FLOCK 4BE-13","OBJECT_ID":"2024-149AW","EPOCH":"2026-03-02T17:56:41.247168","MEAN_MOTION":15.38495986,"ECCENTRICITY":0.00034523,"INCLINATION":97.3777,"RA_OF_ASC_NODE":145.2868,"ARG_OF_PERICENTER":297.026,"MEAN_ANOMALY":63.0633,"EPHEMERIS_TYPE":0,"CLASSIFICATION_TYPE":"U","NORAD_CAT_ID":60512,"ELEMENT_SET_NO":999,"REV_AT_EPOCH":8598,"BSTAR":0.00055813326,"MEAN_MOTION_DOT":0.00021155,"MEAN_MOTION_DDOT":0},{"OBJECT_NAME":"FLOCK 4BE-27","OBJECT_ID":"2024-149AX","EPOCH":"2026-03-02T18:24:12.912768","MEAN_MOTION":15.32401548,"ECCENTRICITY":0.00030592,"INCLINATION":97.3886,"RA_OF_ASC_NODE":143.7047,"ARG_OF_PERICENTER":340.3547,"MEAN_ANOMALY":19.7576,"EPHEMERIS_TYPE":0,"CLASSIFICATION_TYPE":"U","NORAD_CAT_ID":60513,"ELEMENT_SET_NO":999,"REV_AT_EPOCH":8583,"BSTAR":0.00040467845,"MEAN_MOTION_DOT":0.00012591,"MEAN_MOTION_DDOT":0},{"OBJECT_NAME":"FLOCK 4BE-9","OBJECT_ID":"2024-149AY","EPOCH":"2026-03-02T19:01:31.507392","MEAN_MOTION":15.37292516,"ECCENTRICITY":0.00016752,"INCLINATION":97.3849,"RA_OF_ASC_NODE":145.2869,"ARG_OF_PERICENTER":337.3408,"MEAN_ANOMALY":22.7762,"EPHEMERIS_TYPE":0,"CLASSIFICATION_TYPE":"U","NORAD_CAT_ID":60514,"ELEMENT_SET_NO":999,"REV_AT_EPOCH":8595,"BSTAR":0.0005186214,"MEAN_MOTION_DOT":0.00018891,"MEAN_MOTION_DDOT":0},{"OBJECT_NAME":"FLOCK 4BE-6","OBJECT_ID":"2024-149BA","EPOCH":"2026-03-02T16:21:50.473152","MEAN_MOTION":15.36340309,"ECCENTRICITY":0.00024031,"INCLINATION":97.3851,"RA_OF_ASC_NODE":144.7105,"ARG_OF_PERICENTER":326.3468,"MEAN_ANOMALY":33.7623,"EPHEMERIS_TYPE":0,"CLASSIFICATION_TYPE":"U","NORAD_CAT_ID":60516,"ELEMENT_SET_NO":999,"REV_AT_EPOCH":8590,"BSTAR":0.00051700794,"MEAN_MOTION_DOT":0.00018262,"MEAN_MOTION_DDOT":0},{"OBJECT_NAME":"FLOCK 4BE-14","OBJECT_ID":"2024-149BB","EPOCH":"2026-03-02T18:00:27.003456","MEAN_MOTION":15.37375766,"ECCENTRICITY":0.00032607,"INCLINATION":97.376,"RA_OF_ASC_NODE":144.8488,"ARG_OF_PERICENTER":322.5031,"MEAN_ANOMALY":37.5986,"EPHEMERIS_TYPE":0,"CLASSIFICATION_TYPE":"U","NORAD_CAT_ID":60517,"ELEMENT_SET_NO":999,"REV_AT_EPOCH":8595,"BSTAR":0.00052741936,"MEAN_MOTION_DOT":0.00019268,"MEAN_MOTION_DDOT":0},{"OBJECT_NAME":"FLOCK 4BE-1","OBJECT_ID":"2024-149BC","EPOCH":"2026-03-02T19:15:49.703904","MEAN_MOTION":15.38629935,"ECCENTRICITY":0.00031494,"INCLINATION":97.3837,"RA_OF_ASC_NODE":145.8254,"ARG_OF_PERICENTER":318.2678,"MEAN_ANOMALY":41.8326,"EPHEMERIS_TYPE":0,"CLASSIFICATION_TYPE":"U","NORAD_CAT_ID":60518,"ELEMENT_SET_NO":999,"REV_AT_EPOCH":8599,"BSTAR":0.00057035751,"MEAN_MOTION_DOT":0.00021715,"MEAN_MOTION_DDOT":0},{"OBJECT_NAME":"FLOCK 4BE-28","OBJECT_ID":"2024-149BD","EPOCH":"2026-03-02T18:33:07.085088","MEAN_MOTION":15.40616794,"ECCENTRICITY":0.00035319,"INCLINATION":97.3802,"RA_OF_ASC_NODE":146.2118,"ARG_OF_PERICENTER":316.5043,"MEAN_ANOMALY":43.5924,"EPHEMERIS_TYPE":0,"CLASSIFICATION_TYPE":"U","NORAD_CAT_ID":60519,"ELEMENT_SET_NO":999,"REV_AT_EPOCH":8603,"BSTAR":0.00063060801,"MEAN_MOTION_DOT":0.00025648,"MEAN_MOTION_DDOT":0}]
